#dP2022  9 16 18  0  0.00000000      96 __u+U ITR00 EXT  IAC
## 2227 496800.00000000   900.00000000 59838 0.7500000000000
+  116   C06C07C08C09C10C11C12C13C14C16C19C20C21C22C23C24C25
+        C26C27C28C29C30C32C33C34C35C36C37C38C39C40C41C42C43
+        C44C45C46E01E02E03E04E05E07E08E09E10E11E12E13E15E18
+        E19E21E24E25E26E27E30E31E33E34E36G01G02G03G04G05G06
+        G07G08G09G10G11G12G13G14G15G16G17G18G19G20G21G22G23
+        G24G25G26G27G28G29G30G31G32J02J03R01R02R03R04R05R07
+        R08R09R11R12R13R14R15R17R18R19R20R21R24R25  0  0  0
++        12  9 10 10 10 14  8  9  8 11  8  7  9  8  6  8  9
++         9  8  7 10  9  7  7  8  9  7  7 10  8  9  8  8  8
++         7  8  8  7  8  8  8  9  6  8  9 11  7  8  7  7  6
++         6  8  6  8  8  7  7  8  7  7  8  8  7  6  8  6  7
++         8  8  8  7  7  7  5  7  7  8  6  7  7  6  7  7 10
++         6  6  7  7  6  8  8  8  7  9 10  9  7  7  7  8  8
++         9 10  8  8  7  6  7  8  8  9  9  7  7  8  0  0  0
%c M  cc GPS ccc cccc cccc cccc cccc ccccc ccccc ccccc ccccc
%c cc cc ccc ccc cccc cccc cccc cccc ccccc ccccc ccccc ccccc
%f  0.0000000  0.000000000  0.00000000000  0.000000000000000
%f  0.0000000  0.000000000  0.00000000000  0.000000000000000
%i    0    0    0    0      0      0      0      0         0
%i    0    0    0    0      0      0      0      0         0
/* IAC                                ULTRA-RAPID PREDICTION
/* S/V CLOCKS ARE ALIGNED TO GNSS TIME                      
/* G:C1WC2W R:C1PC2P E:C1XC5X C:C2IC6I J:C1CC2S             
/* PCV:IGS14_2218 OL/AL:FES2004  NONE     YN ORB:CoN CLK:CoN
*  2022 09 16 19 15  0.00000000
PC06  -3154.620539  36503.599882 -20647.017744    853.577330
PC07 -11867.110819  25532.521699  31402.696086   -150.253277
PC08 -19077.677444  35388.874624 -13025.838998    472.882563
PC09   2953.762191  39945.975747 -11944.721055   -861.752977
PC10  -2918.848483  27022.755670  32522.456813     95.897872
PC11  10798.302816 -12248.726712 -22556.559740   -405.144242
PC12  17885.547511   7177.483016 -20154.532139   -515.892553
PC13 -12491.236753  35621.015762 -18967.701519     82.300284
PC14  20805.397149  -9527.583734  16019.964916    656.984115
PC16  -5439.626805  34172.550146 -23710.933208    137.266328
PC19 -11559.091602  13781.660307 -21314.973131   -669.271441
PC20 -25709.805651   4751.007245  -9714.716515    634.700689
PC21  25377.835379   7839.030894  -8587.172416   -409.587318
PC22   9926.983318  15296.870909 -21139.677209   -651.369864
PC23   -189.354871 -21806.804119 -17398.181297   -114.858684
PC24  20739.870710 -11011.254762  15055.956263   -174.476810
PC25  13528.510121 -24247.103679  -2682.038320   -677.273268
PC26  15387.766351   5961.498224  22491.962723     -8.451330
PC27 -18151.593955 -15626.039303  14307.194436     21.900191
PC28 -10501.446229 -25779.939047  -1884.493631     13.735223
PC29  -3293.972248  21054.794946  18013.163058     14.427810
PC30 -15898.549128   3493.580003  22661.578886    502.990092
PC32 -25369.502793  -7712.062934   8691.141339   -800.589330
PC33  11622.618691 -13843.154762  21260.733874   -679.310524
PC34  15420.146961  -4736.370846 -22780.573046   -312.106640
PC35  10505.673358  25636.387635   3214.176709    461.900405
PC36 -14443.171409  23787.542766   2152.483801   -240.132426
PC37 -14508.101459  -7524.848342 -22600.608391   -216.103324
PC38 -22971.219508  35131.815291  -4886.725318     24.706039
PC39  -7715.165308  30691.215164 -27745.918903     -0.443029
PC40 -17328.482607  18713.977003  33524.010269     -4.272631
PC41  -9347.887310 -15407.000574  21349.899580    -84.910933
PC42  26218.867068  -4105.029496   8696.057238   -307.054362
PC43   4030.846446 -20600.610793 -18403.147379     14.604794
PC44  18761.805405  15060.278248 -14130.015601     52.227263
PC45    416.017772  21590.784907  17695.310229    862.618376
PC46 -20690.627795  12669.389639 -13816.359734     -0.314010
PE01 -19825.461382  -6545.598158 -20975.352254   -529.315147
PE02  19952.429313   6428.162119  20898.980643    325.105797
PE03  24949.068721  15857.248154   1632.212960   -600.516882
PE04 -23469.547421   -809.212342 -18017.457037  -1116.877386
PE05  11774.368918  21898.087744 -16066.402070   -143.370777
PE07   8035.090235 -15115.813348  24147.995071   -705.871433
PE08  23378.205897    764.147587  18142.785672   -599.867015
PE09  -8003.284867  14963.426295 -24255.531379   -660.870422
PE10 -13730.964059  17830.918477  19225.022170   -477.286958
PE11  -9148.990791  25921.690015  10963.476098   2194.070374
PE12 -16024.555611   7421.469425  23748.451707   -172.768558
PE13   9491.576662 -25466.615704 -11721.576068    430.585299
PE15  15956.374201  -7216.236412 -23860.595528    719.988857
PE18  26068.913086  15701.976628  -8350.128232   -968.639107
PE19 -23946.815771 -17379.797803    863.830194  -4513.462120
PE21  -1893.046596 -17219.555221 -23994.297265   -758.109028
PE24 -19311.361932  18547.535847  12636.635719   -840.501426
PE25   1569.459307  17339.445484  23951.841371   -587.830797
PE26  -3028.761057 -28330.477866   7999.427508  -1620.635118
PE27  18395.647884 -18840.932001 -13502.551488   -393.624210
PE30  27736.747213  -8659.893846   5612.425347   -842.037153
PE31 -27659.249407   9380.649918  -4803.488704   -503.704713
PE33 -12971.661629 -15173.748003  21854.585011   -453.783478
PE34  13070.868957  14984.039810 -21942.138002     -4.839034
PE36   2480.601972  28610.755672  -7181.654293   -432.428767
PG01 -13236.126632  17056.949095  14925.944913    282.822402
PG02  14402.383697  -9912.301933 -19428.000341   -645.808468
PG03 -22912.678296  12243.599238  -5366.233490   -352.001611
PG04 -13896.455794   7532.349182 -21355.207759   -117.753041
PG05  25232.989399  -5335.093624  -6811.354577    -96.911904
PG06   7888.372008  18843.645086 -16873.225259    462.946980
PG07  -5425.331394  25675.590356  -1138.727887    307.033276
PG08 -20276.842266   -786.551435  17280.494152    -84.893775
PG09  -2720.752152  16558.826385 -20656.078581   -295.257043
PG10  -4973.640890 -14127.152991  22080.889735     -3.564806
PG11  13425.706903   8069.773825 -21453.381987    -17.026167
PG12  23977.538457 -10336.818230  -4822.638531   -279.370656
PG13  21020.390410  10356.679296  12511.711201    388.771769
PG14   2473.053706  15351.835587  21533.066078   -103.065585
PG15  20430.433016  -1678.819402  16606.852218    -28.474320
PG16 -23965.779243  -2166.316512 -12013.424480   -524.282058
PG17   9906.557690  21288.204562  12792.668567    659.787669
PG18   5409.845967 -25922.596614   -525.125128     46.333489
PG19  17224.512336  20224.832132   2416.330414    211.574720
PG20  19340.689600   3816.057170 -17684.545997    485.894527
PG21 -15265.316998   7669.533657  20763.825112    159.361124
PG22 -18535.800550 -19152.663785    839.397056    329.030226
PG23   6666.451001 -16903.412835  19314.837406     -0.077077
PG24  14175.471597 -13491.523402  17447.905288    133.237686
PG25  15049.863265 -16533.203998 -14414.671698    372.722317
PG26 -17809.583522  -7170.106615 -18565.803835    228.787326
PG27 -22606.274125 -11720.522169   8014.648433    210.764689
PG28  11756.339425  11935.828524  21062.437286    337.781474
PG29   4575.433089 -15392.590577 -21184.311897   -552.099458
PG30   2216.241042  24715.659297   9201.985338   -536.992901
PG31  -9159.200457 -17617.699829 -17551.521147   -193.579920
PG32 -13701.619608 -20542.545251  10186.111156   -235.232345
PJ02 -31046.014277  27524.324026  12619.984991     -5.162243
PJ03 -25907.845369  25217.600825  26776.774211     -1.678829
PR01  23376.002609   8459.394566  -5744.575512     14.843249
PR02  21769.507767   -484.840784  13266.444152    -22.681016
PR03   7281.892076  -9180.565980  22688.722784     63.825546
PR04 -10927.454423 -12395.170474  19459.363482    157.814179
PR05 -23204.663521  -9069.608831   5543.700895     99.746465
PR07  -6606.740501   9383.356547 -22752.827035     41.081356
PR08  11083.290224  12411.337643 -19270.707485    -67.212134
PR09 -19359.559920  13046.687115 -10165.694525     77.059671
PR11  -1999.084360  15719.598615  19997.991878     27.247121
PR12  13014.378569   1723.268585  21898.621032     21.354120
PR13  19288.227214 -12033.326876  11561.241406    -26.864956
PR14  14475.175973 -19769.547295  -7110.126432     24.263780
PR15   1290.939951 -15244.073376 -20387.208362     93.680852
PR17   1983.492200 -20106.501532 -15532.037684    561.613698
PR18  -6399.634374 -24714.212144    204.659286     42.727520
PR19 -10771.985131 -17673.465785  14897.990928   -203.929115
PR20  -9927.285275   2940.471182  23318.142207    -78.513272
PR21  -1198.586192  21107.270876  14299.618282   -334.241240
PR24  10095.850048  -4066.298113 -23052.919061    114.956841
PR25   5720.094240  24839.653330   -862.514041     13.252756
EOF
